QIANFAN-81              
1 63167U 25046J   25321.45557821  .00000155  00000+0  22111-3 0  9990
2 63167  88.9753 322.4917 0014332 186.7514 173.3446 13.50995578 44073
QIANFAN-82              
1 63168U 25046K   25321.48918227  .00000112  00000+0  15553-3 0  9990
2 63168  88.9753 322.5320 0012230 193.7625 166.3195 13.50975701 44067
QIANFAN-83              
1 63169U 25046L   25321.42616221  .00000092  00000+0  10283-3 0  9996
2 63169  88.9753 322.3646 0013933 180.8094 179.3043 13.61969193 44151
QIANFAN-84              
1 63170U 25046M   25321.44311985 -.00000029  00000+0 -62885-4 0  9997
2 63170  88.9750 322.6696 0015283 191.9149 168.1643 13.50986242 43986
QIANFAN-85              
1 63171U 25046N   25321.43972139  .00000143  00000+0  20252-3 0  9997
2 63171  88.9752 322.5417 0012606 193.0040 167.0788 13.50980349 44057
QIANFAN-86              
1 63172U 25046P   25321.44803242  .00000132  00000+0  18551-3 0  9994
2 63172  88.9755 322.4023 0010369 195.9018 164.1809 13.50977268 44130
QIANFAN-87              
1 63173U 25046Q   25321.49335398  .00000055  00000+0  66199-4 0  9998
2 63173  88.9751 322.5104 0011169 191.1701 168.9204 13.50970866 44075
QIANFAN-88              
1 63174U 25046R   25321.43572080  .00000111  00000+0  15399-3 0  9992
2 63174  88.9753 322.4702 0011330 200.0299 160.0409 13.50974984 44090
